COSMOS 1536             
1 14699U 84013A   21324.09331584  .00000579  00000-0  37763-4 0  9991
2 14699  82.5282 203.1174 0011553 300.1247  59.8834 15.05981392 35219
